[{"OBJECT_NAME":"ATHENA EPIC","OBJECT_ID":"2025-154C","EPOCH":"2026-03-09T17:44:05.751744","MEAN_MOTION":14.93726693,"ECCENTRICITY":0.00058305,"INCLINATION":97.6779,"RA_OF_ASC_NODE":134.8687,"ARG_OF_PERICENTER":203.8388,"MEAN_ANOMALY":156.2563,"EPHEMERIS_TYPE":0,"CLASSIFICATION_TYPE":"U","NORAD_CAT_ID":64871,"ELEMENT_SET_NO":999,"REV_AT_EPOCH":3416,"BSTAR":0.00033901039,"MEAN_MOTION_DOT":3.534e-5,"MEAN_MOTION_DDOT":0},{"OBJECT_NAME":"FENGYUN 1C DEB","OBJECT_ID":"1999-025DEQ","EPOCH":"2026-03-08T16:18:11.400768","MEAN_MOTION":15.03063896,"ECCENTRICITY":0.0041192,"INCLINATION":98.802,"RA_OF_ASC_NODE":149.1421,"ARG_OF_PERICENTER":81.4798,"MEAN_ANOMALY":279.1089,"EPHEMERIS_TYPE":0,"CLASSIFICATION_TYPE":"U","NORAD_CAT_ID":33655,"ELEMENT_SET_NO":999,"REV_AT_EPOCH":97846,"BSTAR":0.0032042236,"MEAN_MOTION_DOT":0.0004416,"MEAN_MOTION_DDOT":0}]
